1 20959U 90103A   15152.37490584  .00000081  00000-0  00000+0 0  9990
2 20959  54.2578 194.8844 0112427   1.7663 358.3669  2.00553213179521
